{
  "type": "FeatureCollection",
  "features": [
    {
      "type": "Feature",
      "properties": {
        "norad_id": 36073,
        "name": "COSMOS 2251 DEB",
        "group": "cosmos-2251-debris",
        "lat": -29.705586999276075,
        "lon": -57.544169714261955,
        "alt_km": 769.4509530957048,
        "timestamp": "2025-12-18T13:51:50.083290+00:00",
        "meta_object_name": "COSMOS 2251 DEB",
        "meta_object_id": "1993-036AYL",
        "meta_epoch": "2025-12-18T03:58:06.481920",
        "meta_mean_motion": 14.34959898,
        "meta_eccentricity": 0.00240895,
        "meta_inclination": 74.0326,
        "meta_ra_of_asc_node": 312.6126,
        "meta_arg_of_pericenter": 19.0207,
        "meta_mean_anomaly": 341.1839,
        "meta_ephemeris_type": 0,
        "meta_classification_type": "U",
        "meta_norad_cat_id": 36073,
        "meta_element_set_no": 999,
        "meta_rev_at_epoch": 70285,
        "meta_bstar": 0.0001893667,
        "meta_mean_motion_dot": 5.14e-06,
        "meta_mean_motion_ddot": 0,
        "tle_line1": "1 36073U 93036AYL 25352.16535280  .00000514  00000+0  18937-3 0  9997",
        "tle_line2": "2 36073  74.0326 312.6126 0024089  19.0207 341.1839 14.34959898702857"
      },
      "geometry": {
        "type": "Point",
        "coordinates": [
          -57.544169714261955,
          -29.705586999276075
        ]
      }
    },
    {
      "type": "Feature",
      "properties": {
        "norad_id": 36074,
        "name": "COSMOS 2251 DEB",
        "group": "cosmos-2251-debris",
        "lat": -64.3063604942391,
        "lon": -67.0280455923995,
        "alt_km": 771.5377950069123,
        "timestamp": "2025-12-18T13:51:50.083301+00:00",
        "meta_object_name": "COSMOS 2251 DEB",
        "meta_object_id": "1993-036AYM",
        "meta_epoch": "2025-12-17T04:55:34.739616",
        "meta_mean_motion": 14.43760583,
        "meta_eccentricity": 0.00415505,
        "meta_inclination": 73.9924,
        "meta_ra_of_asc_node": 332.1608,
        "meta_arg_of_pericenter": 62.4035,
        "meta_mean_anomaly": 298.1332,
        "meta_ephemeris_type": 0,
        "meta_classification_type": "U",
        "meta_norad_cat_id": 36074,
        "meta_element_set_no": 999,
        "meta_rev_at_epoch": 85974,
        "meta_bstar": 0.00075567049,
        "meta_mean_motion_dot": 2.571e-05,
        "meta_mean_motion_ddot": 0,
        "tle_line1": "1 36074U 93036AYM 25351.20526319  .00002571  00000+0  75567-3 0  9992",
        "tle_line2": "2 36074  73.9924 332.1608 0041550  62.4035 298.1332 14.43760583859746"
      },
      "geometry": {
        "type": "Point",
        "coordinates": [
          -67.0280455923995,
          -64.3063604942391
        ]
      }
    },
    {
      "type": "Feature",
      "properties": {
        "norad_id": 36366,
        "name": "COSMOS 2251 DEB",
        "group": "cosmos-2251-debris",
        "lat": 9.193638302023714,
        "lon": -94.93940207557488,
        "alt_km": 770.000423540344,
        "timestamp": "2025-12-18T13:51:50.083311+00:00",
        "meta_object_name": "COSMOS 2251 DEB",
        "meta_object_id": "1993-036AYT",
        "meta_epoch": "2025-12-18T03:46:11.464896",
        "meta_mean_motion": 14.33438299,
        "meta_eccentricity": 0.00904465,
        "meta_inclination": 74.0659,
        "meta_ra_of_asc_node": 263.1777,
        "meta_arg_of_pericenter": 290.3468,
        "meta_mean_anomaly": 68.7983,
        "meta_ephemeris_type": 0,
        "meta_classification_type": "U",
        "meta_norad_cat_id": 36366,
        "meta_element_set_no": 999,
        "meta_rev_at_epoch": 86366,
        "meta_bstar": 0.0012088696,
        "meta_mean_motion_dot": 3.468e-05,
        "meta_mean_motion_ddot": 0,
        "tle_line1": "1 36366U 93036AYT 25352.15707714  .00003468  00000+0  12089-2 0  9996",
        "tle_line2": "2 36366  74.0659 263.1777 0090446 290.3468  68.7983 14.33438299863661"
      },
      "geometry": {
        "type": "Point",
        "coordinates": [
          -94.93940207557488,
          9.193638302023714
        ]
      }
    },
    {
      "type": "Feature",
      "properties": {
        "norad_id": 36367,
        "name": "COSMOS 2251 DEB",
        "group": "cosmos-2251-debris",
        "lat": 42.133570599997704,
        "lon": 26.633649502688844,
        "alt_km": 1114.0704365371148,
        "timestamp": "2025-12-18T13:51:50.083322+00:00",
        "meta_object_name": "COSMOS 2251 DEB",
        "meta_object_id": "1993-036AYU",
        "meta_epoch": "2025-12-16T09:14:18.433248",
        "meta_mean_motion": 13.86349505,
        "meta_eccentricity": 0.02621043,
        "meta_inclination": 74.1014,
        "meta_ra_of_asc_node": 225.2719,
        "meta_arg_of_pericenter": 297.3835,
        "meta_mean_anomaly": 60.0842,
        "meta_ephemeris_type": 0,
        "meta_classification_type": "U",
        "meta_norad_cat_id": 36367,
        "meta_element_set_no": 999,
        "meta_rev_at_epoch": 57580,
        "meta_bstar": 0.0011645262,
        "meta_mean_motion_dot": 1.741e-05,
        "meta_mean_motion_ddot": 0,
        "tle_line1": "1 36367U 93036AYU 25350.38493557  .00001741  00000+0  11645-2 0  9996",
        "tle_line2": "2 36367  74.1014 225.2719 0262104 297.3835  60.0842 13.86349505575803"
      },
      "geometry": {
        "type": "Point",
        "coordinates": [
          26.633649502688844,
          42.133570599997704
        ]
      }
    },
    {
      "type": "Feature",
      "properties": {
        "norad_id": 36369,
        "name": "COSMOS 2251 DEB",
        "group": "cosmos-2251-debris",
        "lat": -29.035745407228408,
        "lon": 50.19742606303783,
        "alt_km": 662.4569099141554,
        "timestamp": "2025-12-18T13:51:50.083332+00:00",
        "meta_object_name": "COSMOS 2251 DEB",
        "meta_object_id": "1993-036AYW",
        "meta_epoch": "2025-12-16T11:29:35.574144",
        "meta_mean_motion": 14.73629062,
        "meta_eccentricity": 0.00109821,
        "meta_inclination": 74.0316,
        "meta_ra_of_asc_node": 63.4356,
        "meta_arg_of_pericenter": 140.037,
        "meta_mean_anomaly": 220.1613,
        "meta_ephemeris_type": 0,
        "meta_classification_type": "U",
        "meta_norad_cat_id": 36369,
        "meta_element_set_no": 999,
        "meta_rev_at_epoch": 85977,
        "meta_bstar": 0.00089048503,
        "meta_mean_motion_dot": 5.781e-05,
        "meta_mean_motion_ddot": 0,
        "tle_line1": "1 36369U 93036AYW 25350.47888396  .00005781  00000+0  89049-3 0  9999",
        "tle_line2": "2 36369  74.0316  63.4356 0010982 140.0370 220.1613 14.73629062859773"
      },
      "geometry": {
        "type": "Point",
        "coordinates": [
          50.19742606303783,
          -29.035745407228408
        ]
      }
    },
    {
      "type": "Feature",
      "properties": {
        "norad_id": 36371,
        "name": "COSMOS 2251 DEB",
        "group": "cosmos-2251-debris",
        "lat": 1.9349877744712667,
        "lon": -30.366514694964767,
        "alt_km": 654.7043853469113,
        "timestamp": "2025-12-18T13:51:50.083343+00:00",
        "meta_object_name": "COSMOS 2251 DEB",
        "meta_object_id": "1993-036AYY",
        "meta_epoch": "2025-12-17T04:24:24.496704",
        "meta_mean_motion": 14.70697295,
        "meta_eccentricity": 0.00093434,
        "meta_inclination": 74.0124,
        "meta_ra_of_asc_node": 152.897,
        "meta_arg_of_pericenter": 191.9871,
        "meta_mean_anomaly": 168.1079,
        "meta_ephemeris_type": 0,
        "meta_classification_type": "U",
        "meta_norad_cat_id": 36371,
        "meta_element_set_no": 999,
        "meta_rev_at_epoch": 71510,
        "meta_bstar": 0.0014821732,
        "meta_mean_motion_dot": 9.018e-05,
        "meta_mean_motion_ddot": 0,
        "tle_line1": "1 36371U 93036AYY 25351.18361686  .00009018  00000+0  14822-2 0  9992",
        "tle_line2": "2 36371  74.0124 152.8970 0009343 191.9871 168.1079 14.70697295715103"
      },
      "geometry": {
        "type": "Point",
        "coordinates": [
          -30.366514694964767,
          1.9349877744712667
        ]
      }
    },
    {
      "type": "Feature",
      "properties": {
        "norad_id": 36379,
        "name": "COSMOS 2251 DEB",
        "group": "cosmos-2251-debris",
        "lat": -25.232373930798968,
        "lon": -71.67551036815595,
        "alt_km": 776.3139480562768,
        "timestamp": "2025-12-18T13:51:50.083353+00:00",
        "meta_object_name": "COSMOS 2251 DEB",
        "meta_object_id": "1993-036AZG",
        "meta_epoch": "2025-12-17T15:24:04.295232",
        "meta_mean_motion": 14.36087226,
        "meta_eccentricity": 0.00447272,
        "meta_inclination": 74.0127,
        "meta_ra_of_asc_node": 297.8094,
        "meta_arg_of_pericenter": 65.3038,
        "meta_mean_anomaly": 112.1684,
        "meta_ephemeris_type": 0,
        "meta_classification_type": "U",
        "meta_norad_cat_id": 36379,
        "meta_element_set_no": 999,
        "meta_rev_at_epoch": 64898,
        "meta_bstar": 0.00025368539,
        "meta_mean_motion_dot": 7.21e-06,
        "meta_mean_motion_ddot": 0,
        "tle_line1": "1 36379U 93036AZG 25351.64171638  .00000721  00000+0  25369-3 0  9998",
        "tle_line2": "2 36379  74.0127 297.8094 0044727  65.3038 112.1684 14.36087226648986"
      },
      "geometry": {
        "type": "Point",
        "coordinates": [
          -71.67551036815595,
          -25.232373930798968
        ]
      }
    }
  ]
}